OBJECT_NAME,OBJECT_ID,EPOCH,MEAN_MOTION,ECCENTRICITY,INCLINATION,RA_OF_ASC_NODE,ARG_OF_PERICENTER,MEAN_ANOMALY,EPHEMERIS_TYPE,CLASSIFICATION_TYPE,NORAD_CAT_ID,ELEMENT_SET_NO,REV_AT_EPOCH,BSTAR,MEAN_MOTION_DOT,MEAN_MOTION_DDOT
COSMOS 1408 DEB,1982-092BVS,2022-06-30T16:28:22.941696,15.42142688,.0021158,82.5702,256.5966,298.8808,61.0316,0,U,52210,999,1740,.96237E-3,.41723E-3,0
COSMOS 1408 DEB,1982-092BVU,2022-06-29T22:00:39.455712,15.75285770,.0057819,82.5515,248.0888,202.8033,157.0664,0,U,52212,999,1761,.68739E-3,.116093E-2,0
COSMOS 1408 DEB,1982-092BVV,2022-06-26T11:57:39.074688,15.29641385,.0126314,82.2775,257.4117,8.8219,351.5196,0,U,52213,999,1549,.2087E-2,.77141E-3,0
COSMOS 1408 DEB,1982-092BVX,2022-06-29T23:11:45.060864,15.19287241,.0076112,82.5541,261.2102,345.6360,14.2708,0,U,52215,999,1600,.30768E-3,.7047E-4,0
COSMOS 1408 DEB,1982-092BVY,2022-06-30T12:48:01.589472,15.36408373,.0039975,82.5563,257.6003,323.7801,36.0736,0,U,52216,999,1735,.72514E-3,.26527E-3,0
COSMOS 1408 DEB,1982-092BWC,2022-06-30T22:29:07.304640,15.30228020,.0062867,82.5694,259.6662,25.3252,335.1046,0,U,52220,999,1734,.68532E-3,.21359E-3,0
COSMOS 1408 DEB,1982-092BWE,2022-06-29T22:31:24.506112,15.01064773,.0153398,82.1492,255.6488,34.9826,326.1358,0,U,52222,999,1882,.68323E-3,.11289E-3,0
COSMOS 1408 DEB,1982-092BWF,2022-06-30T12:16:36.239520,15.44284363,.0018503,82.6116,256.3529,37.8646,322.3899,0,U,52223,999,1439,.64804E-3,.30105E-3,0
COSMOS 1408 DEB,1982-092BWH,2022-06-30T22:15:07.969248,15.48789655,.0045921,82.5506,255.9426,41.3524,319.1188,0,U,52225,999,1739,.12858E-2,.72578E-3,0
COSMOS 1408 DEB,1982-092BWK,2022-06-28T22:27:27.189504,15.33911625,.0032926,82.5828,258.2444,47.7006,312.7019,0,U,52227,999,1706,.27601E-3,.9249E-4,0
COSMOS 1408 DEB,1982-092BWQ,2022-07-01T03:57:43.006176,15.35686857,.0040383,82.5668,256.9689,311.4799,48.2979,0,U,52232,999,1707,.54892E-3,.19622E-3,0
COSMOS 1408 DEB,1982-092BWT,2022-06-30T12:24:16.518240,15.29108805,.0084345,82.6035,262.9111,321.1733,38.3464,0,U,52235,999,1849,.70537E-3,.22269E-3,0
COSMOS 1408 DEB,1982-092BWU,2022-06-30T05:51:57.854304,15.14590765,.0161996,82.5333,265.3199,64.3422,297.4441,0,U,52236,999,1792,.12909E-2,.33332E-3,0
COSMOS 1408 DEB,1982-092BWV,2022-06-30T22:06:15.393600,15.43345049,.0093277,82.3839,250.1240,273.5185,85.5397,0,U,52237,999,1838,.59043E-3,.31066E-3,0
COSMOS 1408 DEB,1982-092BWW,2022-06-30T14:55:53.855904,15.76584638,.0017729,82.5551,248.2891,123.9391,236.3563,0,U,52238,999,1862,.81525E-3,.132469E-2,0
COSMOS 1408 DEB,1982-092BWY,2022-07-01T04:36:15.920352,15.36995468,.0028995,82.5645,255.3660,31.4741,328.8230,0,U,52240,999,1840,.35583E-3,.13099E-3,0
COSMOS 1408 DEB,1982-092BWZ,2022-06-30T21:42:29.409984,15.48595017,.0015867,82.5532,252.3746,82.1706,278.1345,0,U,52241,999,1847,.49004E-3,.2635E-3,0
COSMOS 1408 DEB,1982-092BXA,2022-06-30T22:25:11.224416,15.31810057,.0042205,82.5815,257.5716,27.8617,332.4871,0,U,52242,999,1823,.31689E-3,.10044E-3,0
COSMOS 1408 DEB,1982-092BXB,2022-06-30T23:05:54.483360,15.31850806,.0035575,82.5574,256.9703,331.0566,28.8701,0,U,52243,999,1824,.34629E-3,.10897E-3,0
COSMOS 1408 DEB,1982-092BXC,2022-06-25T00:29:50.316864,15.16547597,.0102058,83.1128,285.8684,358.0298,2.0519,0,U,52244,999,1714,.84862E-3,.18991E-3,0
COSMOS 1408 DEB,1982-092BXE,2022-06-30T05:27:55.490112,15.27987467,.00636,82.7936,265.9690,295.7205,63.7478,0,U,52246,999,1734,.22867E-3,.6667E-4,0
COSMOS 1408 DEB,1982-092BXK,2022-06-30T21:55:18.149664,15.69462943,.0040118,82.4904,251.4743,255.5689,104.1119,0,U,52251,999,1561,.20342E-2,.256534E-2,0
COSMOS 1408 DEB,1982-092BXM,2022-07-01T04:27:27.354528,15.41465422,.0041341,82.5799,254.3332,251.6084,108.0665,0,U,52253,999,1555,.30903E-3,.13386E-3,0
COSMOS 1408 DEB,1982-092BXN,2022-06-11T00:01:46.630560,15.43889752,.0020589,82.5738,274.8745,110.6610,249.6848,0,U,52254,999,1231,.12726E-2,.58587E-3,0
CHINASAT 6D,2022-038A,2022-06-30T23:12:18.976320,1.00269163,.0001879,0.0048,40.2420,140.6983,211.1884,0,U,52255,999,93,0,-.346E-5,0
CZ-3B R/B,2022-038B,2022-06-29T12:18:46.440864,2.43199077,.7182275,28.4959,351.0911,227.0232,45.0508,0,U,52256,999,181,.76023E-3,.9001E-4,0
DAQI 1,2022-039A,2022-07-01T04:42:38.832192,14.57705799,.0003161,98.1381,122.4055,56.5304,303.6197,0,U,52257,999,1113,.4437E-4,.158E-5,0
CZ-4C R/B,2022-039B,2022-06-30T20:28:33.030912,14.90888995,.0138606,98.1692,126.3791,172.0638,188.2819,0,U,52258,999,1133,.50399E-4,.524E-5,0
SZ-13 MODULE,2021-092C,2022-07-01T06:21:40.731264,15.68413108,.0011484,41.4803,129.1887,231.4245,287.8134,0,U,52260,999,1156,.13979E-3,.1594E-3,0
STARLINK-3810,2022-041A,2022-06-30T22:00:00.999936,15.08834064,.0002053,53.2113,39.5120,49.4088,264.4228,0,U,52261,999,130,.12934E-3,.1771E-4,0
STARLINK-3761,2022-041B,2022-06-30T22:00:00.999936,15.08865142,.0001975,53.2133,39.5115,51.5843,237.0837,0,U,52262,999,130,-.21853E-2,-.34924E-3,0
STARLINK-3786,2022-041C,2022-06-30T22:00:00.999936,15.08825772,.0002412,53.2128,39.5126,58.3777,235.5544,0,U,52263,999,130,.22808E-3,.3342E-4,0
STARLINK-3795,2022-041D,2022-06-30T22:00:00.999936,15.08831783,.0002052,53.2132,39.5115,47.2902,286.4917,0,U,52264,999,130,.30439E-4,.196E-5,0
STARLINK-3740,2022-041E,2022-06-30T22:00:00.999936,15.08862732,.0002014,53.2125,39.5101,48.1782,305.6442,0,U,52265,999,130,-.25891E-2,-.41285E-3,0
STARLINK-3739,2022-041F,2022-06-30T22:00:00.999936,15.08829732,.0001743,53.2132,39.5104,51.0061,322.7902,0,U,52266,999,130,-.23709E-3,-.4058E-4,0
STARLINK-3748,2022-041G,2022-06-30T22:00:00.999936,15.08846034,.0001841,53.2133,39.5093,50.1728,343.7052,0,U,52267,999,130,-.30903E-3,-.5204E-4,0
STARLINK-3746,2022-041H,2022-06-30T22:00:00.999936,15.08855477,.0001698,53.2135,39.5081,51.0093,42.9035,0,U,52268,999,130,-.28682E-2,-.45666E-3,0
STARLINK-3791,2022-041J,2022-06-30T22:00:00.999936,15.08845493,.0001764,53.2140,39.5079,63.1457,350.7367,0,U,52269,999,130,-.36356E-3,-.607E-4,0
STARLINK-3804,2022-041K,2022-06-30T22:00:00.999936,15.08851410,.0001802,53.2163,39.4967,54.0432,54.5818,0,U,52270,999,130,-.27194E-3,-.4615E-4,0
STARLINK-3788,2022-041L,2022-06-30T22:00:00.999936,15.08828531,.00018,53.2127,39.5085,55.9669,17.8431,0,U,52271,999,130,-.36505E-3,-.6091E-4,0
STARLINK-3781,2022-041M,2022-06-30T22:00:00.999936,15.08844725,.0001908,53.2152,39.4960,55.6029,73.0650,0,U,52272,999,130,-.22207E-3,-.3821E-4,0
STARLINK-3782,2022-041N,2022-06-30T22:00:00.999936,15.34775302,.0001349,53.2175,31.0414,58.7675,332.6508,0,U,52273,999,130,-.22833E-1,-.720718E-2,0
STARLINK-3790,2022-041P,2022-06-30T22:00:00.999936,15.08850736,.0001873,53.2167,39.4954,53.2363,100.6403,0,U,52274,999,130,-.92834E-5,-.436E-5,0
STARLINK-3784,2022-041Q,2022-06-30T22:00:00.999936,15.08846779,.0001959,53.2163,39.4956,57.9925,55.9035,0,U,52275,999,130,-.25938E-3,-.4415E-4,0
STARLINK-3778,2022-041R,2022-06-30T22:00:00.999936,15.08846412,.000209,53.2190,39.4960,54.7561,119.0973,0,U,52276,999,130,.55222E-4,.591E-5,0
STARLINK-3787,2022-041S,2022-07-01T06:00:00.999648,15.08876256,.000172,53.2164,37.9987,54.5149,90.9681,0,U,52277,999,1217,-.48531E-2,-.76779E-3,0
STARLINK-3780,2022-041T,2022-06-30T22:00:00.999936,15.08838483,.0001827,53.2183,39.4932,51.5483,142.2784,0,U,52278,999,130,.12898E-3,.1765E-4,0
STARLINK-3686,2022-041U,2022-06-30T22:00:00.999936,15.08847309,.0001947,53.2161,39.4950,62.2888,86.3310,0,U,52279,999,130,-.13701E-3,-.2469E-4,0
STARLINK-3764,2022-041V,2022-07-01T06:00:00.999648,15.08861793,.0002109,53.2216,37.9969,50.5486,214.9229,0,U,52280,999,1217,-.21374E-2,-.34165E-3,0
STARLINK-3779,2022-041W,2022-06-30T22:00:00.999936,15.08844820,.0001994,53.2172,39.4948,47.1790,121.4805,0,U,52281,999,130,.26685E-4,.137E-5,0
STARLINK-3783,2022-041X,2022-06-30T22:00:00.999936,15.32923476,.0001284,53.2173,30.9539,70.9060,254.6684,0,U,52282,999,130,-.24128E-1,-.718147E-2,0
STARLINK-3789,2022-041Y,2022-06-30T22:00:00.999936,15.08842907,.0001778,53.2192,39.4935,52.0288,161.8205,0,U,52283,999,130,.22352E-3,.3271E-4,0
STARLINK-3561,2022-041Z,2022-06-30T22:00:00.999936,15.33320395,.0001376,53.2173,30.9709,57.6047,285.3050,0,U,52284,999,130,-.23856E-1,-.718992E-2,0
STARLINK-3775,2022-041AA,2022-07-01T06:00:00.999648,15.08855959,.000181,53.2202,37.9964,47.3350,198.1320,0,U,52285,999,1217,-.21177E-2,-.33848E-3,0
STARLINK-3802,2022-041AB,2022-06-30T22:00:00.999936,15.33717194,.0001258,53.2173,30.9877,69.5052,290.3701,0,U,52286,999,130,-.23579E-1,-.719601E-2,0
STARLINK-3822,2022-041AC,2022-06-30T22:00:00.999936,15.08831620,.0002094,53.2230,39.4937,48.1422,225.7289,0,U,52287,999,130,.2281E-3,.3343E-4,0
STARLINK-3776,2022-041AD,2022-06-30T22:00:00.999936,15.33915559,.0001266,53.2174,30.9959,67.5759,300.6435,0,U,52288,999,130,-.2344E-1,-.719874E-2,0
STARLINK-3751,2022-041AE,2022-06-30T22:00:00.999936,15.33121930,.0001326,53.2173,30.9626,63.5587,270.7296,0,U,52289,999,130,-.23992E-1,-.718577E-2,0
STARLINK-3772,2022-041AF,2022-06-30T22:00:00.999936,15.34456843,.0001367,53.2175,31.0181,57.0054,333.7399,0,U,52290,999,130,-.23063E-1,-.720602E-2,0
STARLINK-3773,2022-041AG,2022-06-30T22:00:00.999936,15.33518811,.0001284,53.2173,30.9794,65.8145,285.6242,0,U,52291,999,130,-.23718E-1,-.719315E-2,0
STARLINK-3753,2022-041AH,2022-06-30T22:00:00.999936,15.34700253,.000137,53.2175,31.0275,57.1342,344.0683,0,U,52292,999,130,-.2289E-1,-.720779E-2,0
STARLINK-3771,2022-041AJ,2022-06-30T22:00:00.999936,15.34113996,.0001296,53.2174,31.0043,62.7064,313.7647,0,U,52293,999,130,-.23304E-1,-.720219E-2,0
STARLINK-3777,2022-041AK,2022-06-30T22:00:00.999936,15.34898515,.0001301,53.2175,31.0355,64.3313,344.7572,0,U,52294,999,130,-.22746E-1,-.720801E-2,0
STARLINK-3765,2022-041AL,2022-06-30T22:00:00.999936,15.34312350,.00013,53.2174,31.0125,63.6085,321.0218,0,U,52295,999,130,-.23166E-1,-.720484E-2,0
STARLINK-3766,2022-041AM,2022-06-30T22:00:00.999936,15.35493192,.0001371,53.2176,31.0592,59.5123,12.6795,0,U,52296,999,130,-.22315E-1,-.720802E-2,0
